{"type": "FeatureCollection", "features": [ {"type": "Feature", "properties": {"norad_id": 29919, "name": "FENGYUN 1C DEB", "group": "fengyun-1c-debris", "lat": 13.297506923776249, "lon": -23.060161084253554, "alt_km": 1017.6427363286102, "timestamp": "2025-12-27T22:26:48.875654+00:00", "meta": {"OBJECT_NAME": "FENGYUN 1C DEB", "OBJECT_ID": "1999-025HR", "EPOCH": "2025-12-27T09:45:35.703072", "MEAN_MOTION": 13.85129563, "ECCENTRICITY": 0.0136834, "INCLINATION": 98.48, "RA_OF_ASC_NODE": 154.441, "ARG_OF_PERICENTER": 303.4604, "MEAN_ANOMALY": 109.566, "EPHEMERIS_TYPE": 0, "CLASSIFICATION_TYPE": "U", "NORAD_CAT_ID": 29919, "ELEMENT_SET_NO": 999, "REV_AT_EPOCH": 95738, "BSTAR": 0.00021532, "MEAN_MOTION_DOT": 2.23e-06, "MEAN_MOTION_DDOT": 0}, "tle": {"line1": "1 29919U 99025HR  25361.40666323  .00000223  00000+0  21532-3 0  9994", "line2": "2 29919  98.4800 154.4410 0136834 303.4604 109.5660 13.85129563957387"}}, "geometry": {"type": "Point", "coordinates": [-23.060161084253554, 13.297506923776249]}}, {"type": "Feature", "properties": {"norad_id": 29920, "name": "FENGYUN 1C DEB", "group": "fengyun-1c-debris", "lat": -20.934477713659803, "lon": -141.4915045509764, "alt_km": 902.5460479345593, "timestamp": "2025-12-27T22:26:48.875664+00:00", "meta": {"OBJECT_NAME": "FENGYUN 1C DEB", "OBJECT_ID": "1999-025HS", "EPOCH": "2025-12-21T12:34:58.800288", "MEAN_MOTION": 14.03693596, "ECCENTRICITY": 0.01249732, "INCLINATION": 98.3912, "RA_OF_ASC_NODE": 209.3515, "ARG_OF_PERICENTER": 255.9523, "MEAN_ANOMALY": 102.7727, "EPHEMERIS_TYPE": 0, "CLASSIFICATION_TYPE": "U", "NORAD_CAT_ID": 29920, "ELEMENT_SET_NO": 999, "REV_AT_EPOCH": 96411, "BSTAR": 0.0011522683, "MEAN_MOTION_DOT": 1.901e-05, "MEAN_MOTION_DDOT": 0}, "tle": {"line1": "1 29920U 99025HS  25355.52429167  .00001901  00000+0  11523-2 0  9997", "line2": "2 29920  98.3912 209.3515 0124973 255.9523 102.7727 14.03693596964111"}}, "geometry": {"type": "Point", "coordinates": [-141.4915045509764, -20.934477713659803]}}, {"type": "Feature", "properties": {"norad_id": 29921, "name": "FENGYUN 1C DEB", "group": "fengyun-1c-debris", "lat": -25.05030417287167, "lon": 11.75843361253786, "alt_km": 856.0864194592668, "timestamp": "2025-12-27T22:26:48.875674+00:00", "meta": {"OBJECT_NAME": "FENGYUN 1C DEB", "OBJECT_ID": "1999-025HT", "EPOCH": "2025-12-27T07:16:33.460320", "MEAN_MOTION": 14.06661748, "ECCENTRICITY": 0.0045979, "INCLINATION": 98.7868, "RA_OF_ASC_NODE": 6.9991, "ARG_OF_PERICENTER": 29.3304, "MEAN_ANOMALY": 346.5467, "EPHEMERIS_TYPE": 0, "CLASSIFICATION_TYPE": "U", "NORAD_CAT_ID": 29921, "ELEMENT_SET_NO": 999, "REV_AT_EPOCH": 97081, "BSTAR": 0.00049515, "MEAN_MOTION_DOT": 7.87e-06, "MEAN_MOTION_DDOT": 0}, "tle": {"line1": "1 29921U 99025HT  25361.30316505  .00000787  00000+0  49515-3 0  9996", "line2": "2 29921  98.7868   6.9991 0045979  29.3304 346.5467 14.06661748970813"}}, "geometry": {"type": "Point", "coordinates": [11.75843361253786, -25.05030417287167]}}, {"type": "Feature", "properties": {"norad_id": 29922, "name": "FENGYUN 1C DEB", "group": "fengyun-1c-debris", "lat": 41.8749949296589, "lon": 51.03248879282311, "alt_km": 880.1479771628383, "timestamp": "2025-12-27T22:26:48.875683+00:00", "meta": {"OBJECT_NAME": "FENGYUN 1C DEB", "OBJECT_ID": "1999-025HU", "EPOCH": "2025-12-27T03:21:35.571456", "MEAN_MOTION": 13.98584597, "ECCENTRICITY": 0.00923848, "INCLINATION": 99.1329, "RA_OF_ASC_NODE": 58.532, "ARG_OF_PERICENTER": 327.2476, "MEAN_ANOMALY": 32.2981, "EPHEMERIS_TYPE": 0, "CLASSIFICATION_TYPE": "U", "NORAD_CAT_ID": 29922, "ELEMENT_SET_NO": 999, "REV_AT_EPOCH": 96642, "BSTAR": 0.00012805613, "MEAN_MOTION_DOT": 1.45e-06, "MEAN_MOTION_DDOT": 0}, "tle": {"line1": "1 29922U 99025HU  25361.13999504  .00000145  00000+0  12806-3 0  9995", "line2": "2 29922  99.1329  58.5320 0092384 327.2476  32.2981 13.98584597966420"}}, "geometry": {"type": "Point", "coordinates": [51.03248879282311, 41.8749949296589]}}, {"type": "Feature", "properties": {"norad_id": 29923, "name": "FENGYUN 1C DEB", "group": "fengyun-1c-debris", "lat": -0.8121625923685982, "lon": 9.923763369689041, "alt_km": 856.9952866916865, "timestamp": "2025-12-27T22:26:48.875693+00:00", "meta": {"OBJECT_NAME": "FENGYUN 1C DEB", "OBJECT_ID": "1999-025HV", "EPOCH": "2025-12-27T07:14:23.468928", "MEAN_MOTION": 14.1391844, "ECCENTRICITY": 0.0018108, "INCLINATION": 98.6879, "RA_OF_ASC_NODE": 9.1838, "ARG_OF_PERICENTER": 128.8413, "MEAN_ANOMALY": 247.1946, "EPHEMERIS_TYPE": 0, "CLASSIFICATION_TYPE": "U", "NORAD_CAT_ID": 29923, "ELEMENT_SET_NO": 999, "REV_AT_EPOCH": 97481, "BSTAR": 0.00050975, "MEAN_MOTION_DOT": 9.26e-06, "MEAN_MOTION_DDOT": 0}, "tle": {"line1": "1 29923U 99025HV  25361.30166052  .00000926  00000+0  50975-3 0  9995", "line2": "2 29923  98.6879   9.1838 0018108 128.8413 247.1946 14.13918440974815"}}, "geometry": {"type": "Point", "coordinates": [9.923763369689041, -0.8121625923685982]}}, {"type": "Feature", "properties": {"norad_id": 29924, "name": "FENGYUN 1C DEB", "group": "fengyun-1c-debris", "lat": 58.510933479041086, "lon": -0.11351532689177214, "alt_km": 874.5486453335925, "timestamp": "2025-12-27T22:26:48.875703+00:00", "meta": {"OBJECT_NAME": "FENGYUN 1C DEB", "OBJECT_ID": "1999-025HW", "EPOCH": "2025-12-27T00:08:32.931744", "MEAN_MOTION": 14.08893983, "ECCENTRICITY": 0.00263037, "INCLINATION": 98.7337, "RA_OF_ASC_NODE": 13.5202, "ARG_OF_PERICENTER": 216.0741, "MEAN_ANOMALY": 172.6808, "EPHEMERIS_TYPE": 0, "CLASSIFICATION_TYPE": "U", "NORAD_CAT_ID": 29924, "ELEMENT_SET_NO": 999, "REV_AT_EPOCH": 97409, "BSTAR": 2.2994379e-05, "MEAN_MOTION_DOT": -3e-08, "MEAN_MOTION_DDOT": 0}, "tle": {"line1": "1 29924U 99025HW  25361.00593671 -.00000003  00000+0  22994-4 0  9992", "line2": "2 29924  98.7337  13.5202 0026303 216.0741 172.6808 14.08893983974097"}}, "geometry": {"type": "Point", "coordinates": [-0.11351532689177214, 58.510933479041086]}}, {"type": "Feature", "properties": {"norad_id": 29926, "name": "FENGYUN 1C DEB", "group": "fengyun-1c-debris", "lat": -4.227493049318382, "lon": 169.5858928492678, "alt_km": 720.7327410358739, "timestamp": "2025-12-27T22:26:48.875713+00:00", "meta": {"OBJECT_NAME": "FENGYUN 1C DEB", "OBJECT_ID": "1999-025HY", "EPOCH": "2025-12-27T06:34:08.385024", "MEAN_MOTION": 14.33431015, "ECCENTRICITY": 0.0247915, "INCLINATION": 98.2845, "RA_OF_ASC_NODE": 349.569, "ARG_OF_PERICENTER": 256.6597, "MEAN_ANOMALY": 118.1424, "EPHEMERIS_TYPE": 0, "CLASSIFICATION_TYPE": "U", "NORAD_CAT_ID": 29926, "ELEMENT_SET_NO": 999, "REV_AT_EPOCH": 98789, "BSTAR": 0.0003353, "MEAN_MOTION_DOT": 1.252e-05, "MEAN_MOTION_DDOT": 0}, "tle": {"line1": "1 29926U 99025HY  25361.27370816  .00001252  00000+0  33530-3 0  9990", "line2": "2 29926  98.2845 349.5690 0247915 256.6597 118.1424 14.33431015987897"}}, "geometry": {"type": "Point", "coordinates": [169.5858928492678, -4.227493049318382]}}, {"type": "Feature", "properties": {"norad_id": 29927, "name": "FENGYUN 1C DEB", "group": "fengyun-1c-debris", "lat": 57.9782296186651, "lon": 12.899056310144697, "alt_km": 642.4193489322279, "timestamp": "2025-12-27T22:26:48.875723+00:00", "meta": {"OBJECT_NAME": "FENGYUN 1C DEB", "OBJECT_ID": "1999-025HZ", "EPOCH": "2025-12-27T01:08:39.672096", "MEAN_MOTION": 14.75088251, "ECCENTRICITY": 0.00181013, "INCLINATION": 99.0834, "RA_OF_ASC_NODE": 26.7256, "ARG_OF_PERICENTER": 167.0934, "MEAN_ANOMALY": 221.5495, "EPHEMERIS_TYPE": 0, "CLASSIFICATION_TYPE": "U", "NORAD_CAT_ID": 29927, "ELEMENT_SET_NO": 999, "REV_AT_EPOCH": 98858, "BSTAR": 0.003479961, "MEAN_MOTION_DOT": 0.00023534, "MEAN_MOTION_DDOT": 0}, "tle": {"line1": "1 29927U 99025HZ  25361.04768139  .00023534  00000+0  34800-2 0  9992", "line2": "2 29927  99.0834  26.7256 0018101 167.0934 221.5495 14.75088251988580"}}, "geometry": {"type": "Point", "coordinates": [12.899056310144697, 57.9782296186651]}}, {"type": "Feature", "properties": {"norad_id": 29928, "name": "FENGYUN 1C DEB", "group": "fengyun-1c-debris", "lat": 64.8241681791852, "lon": -132.33054057252093, "alt_km": 861.5999965285191, "timestamp": "2025-12-27T22:26:48.875733+00:00", "meta": {"OBJECT_NAME": "FENGYUN 1C DEB", "OBJECT_ID": "1999-025JA", "EPOCH": "2025-12-27T01:28:34.330944", "MEAN_MOTION": 13.88108702, "ECCENTRICITY": 0.0142988, "INCLINATION": 99.5832, "RA_OF_ASC_NODE": 25.7086, "ARG_OF_PERICENTER": 65.0675, "MEAN_ANOMALY": 2.9002, "EPHEMERIS_TYPE": 0, "CLASSIFICATION_TYPE": "U", "NORAD_CAT_ID": 29928, "ELEMENT_SET_NO": 999, "REV_AT_EPOCH": 95690, "BSTAR": 0.00068576902, "MEAN_MOTION_DOT": 8.41e-06, "MEAN_MOTION_DDOT": 0}, "tle": {"line1": "1 29928U 99025JA  25361.06150846  .00000841  00000+0  68577-3 0  9990", "line2": "2 29928  99.5832  25.7086 0142988  65.0675   2.9002 13.88108702956907"}}, "geometry": {"type": "Point", "coordinates": [-132.33054057252093, 64.8241681791852]}}, {"type": "Feature", "properties": {"norad_id": 29929, "name": "FENGYUN 1C DEB", "group": "fengyun-1c-debris", "lat": -20.4883929977317, "lon": -76.3985865309311, "alt_km": 980.1873085481438, "timestamp": "2025-12-27T22:26:48.875743+00:00", "meta": {"OBJECT_NAME": "FENGYUN 1C DEB", "OBJECT_ID": "1999-025JB", "EPOCH": "2025-12-27T00:20:51.755424", "MEAN_MOTION": 14.0140526, "ECCENTRICITY": 0.0131931, "INCLINATION": 98.6246, "RA_OF_ASC_NODE": 279.48, "ARG_OF_PERICENTER": 136.203, "MEAN_ANOMALY": 240.9215, "EPHEMERIS_TYPE": 0, "CLASSIFICATION_TYPE": "U", "NORAD_CAT_ID": 29929, "ELEMENT_SET_NO": 999, "REV_AT_EPOCH": 96156, "BSTAR": 0.0011653347, "MEAN_MOTION_DOT": 1.857e-05, "MEAN_MOTION_DDOT": 0}, "tle": {"line1": "1 29929U 99025JB  25361.01448791  .00001857  00000+0  11653-2 0  9995", "line2": "2 29929  98.6246 279.4800 0131931 136.2030 240.9215 14.01405260961564"}}, "geometry": {"type": "Point", "coordinates": [-76.3985865309311, -20.4883929977317]}}]}